[{"OBJECT_NAME":"OBJECT J","OBJECT_ID":"2023-085J","EPOCH":"2026-03-09T22:47:59.920512","MEAN_MOTION":15.31507187,"ECCENTRICITY":0.00067028,"INCLINATION":97.4828,"RA_OF_ASC_NODE":180.1819,"ARG_OF_PERICENTER":41.7877,"MEAN_ANOMALY":318.3875,"EPHEMERIS_TYPE":0,"CLASSIFICATION_TYPE":"U","NORAD_CAT_ID":57012,"ELEMENT_SET_NO":999,"REV_AT_EPOCH":15156,"BSTAR":0.00064525349,"MEAN_MOTION_DOT":0.00019595,"MEAN_MOTION_DDOT":0},{"OBJECT_NAME":"COSMOS 2292","OBJECT_ID":"1994-061A","EPOCH":"2026-03-09T21:53:12.387552","MEAN_MOTION":13.70280339,"ECCENTRICITY":0.08227551,"INCLINATION":82.9767,"RA_OF_ASC_NODE":346.3461,"ARG_OF_PERICENTER":72.9828,"MEAN_ANOMALY":295.9747,"EPHEMERIS_TYPE":0,"CLASSIFICATION_TYPE":"U","NORAD_CAT_ID":23278,"ELEMENT_SET_NO":999,"REV_AT_EPOCH":54440,"BSTAR":0.00037499431,"MEAN_MOTION_DOT":4.63e-5,"MEAN_MOTION_DDOT":0}]
